GLOBALSTAR M024         
1 25883U 99043A   24337.84566630 -.00000028  00000+0  13015-2 0  9990
2 25883  51.9999 103.6338 0002508 124.9196  40.9963 11.10160975 93050
GLOBALSTAR M027         
1 25884U 99043B   24337.90296186 -.00000006  00000+0  21674-2 0  9990
2 25884  52.0171 175.9289 0022062  36.9095 323.3212 11.04371307119554
GLOBALSTAR M054         
1 25885U 99043C   24337.78542090 -.00000042  00000+0  73702-3 0  9995
2 25885  52.0163 336.4500 0006029 201.8913 329.3706 11.39206520 96665
GLOBALSTAR M053         
1 25886U 99043D   24337.91258718 -.00000046  00000+0  66177-3 0  9994
2 25886  51.9990 272.3500 0003817  96.5502 342.1174 11.27660621 97302
GLOBALSTAR M058         
1 25907U 99049A   24337.78288252 -.00000098  00000+0 -18186-3 0  9990
2 25907  51.9948 273.6236 0001203 273.7307  86.3390 11.93192970518099
GLOBALSTAR M050         
1 25908U 99049B   24337.85200611 -.00000005  00000+0  94024-3 0  9994
2 25908  51.9999 295.7826 0009544   2.8496  34.5667 12.07444232124476
GLOBALSTAR M033         
1 25909U 99049C   24337.84899001 -.00000083  00000+0  83805-4 0  9993
2 25909  51.9882 181.1857 0011887 215.0177 144.9889 12.20292406511771
GLOBALSTAR M055         
1 25910U 99049D   24337.91541824 -.00000032  00000+0  53109-3 0  9997
2 25910  51.9995 201.3002 0008218  83.2556 276.9230 12.29416173144142
